COSMOS 1408 DEB         
1 49527U 82092Q   25110.31776471  .00430130  00000+0  69124-2 0  9997
2 49527  82.3391  74.6901 0114638 132.3153 228.7880 15.44589678180857
COSMOS 1408 DEB         
1 49537U 82092AA  25110.69316051  .00070958  00000+0  12753-2 0  9997
2 49537  82.5417 344.7244 0070880  51.5198 309.2380 15.46766723188916
COSMOS 1408 DEB         
1 50032U 82092RU  25110.52572759  .00006611  00000+0  14822-3 0  9995
2 50032  82.5625 300.0525 0016496 355.4536   4.6559 15.43048743189581
COSMOS 1408 DEB         
1 50058U 82092SW  25110.04913035  .00022214  00000+0  36509-3 0  9999
2 50058  82.6110 314.4805 0020336 251.6449 108.2591 15.51999034191214
COSMOS 1408 DEB         
1 50404U 82092ADS 25110.90788227  .00041884  00000+0  27110-2 0  9993
2 50404  82.2208  88.8243 0274784 264.0945  92.8890 14.81870702176730
COSMOS 1408 DEB         
1 50621U 82092ALR 25110.80707828  .00017747  00000+0  35232-3 0  9997
2 50621  82.5730 317.4988 0034622 296.8526  62.9184 15.46182239185944
COSMOS 1408 DEB         
1 51184U 82092AZJ 25110.88609221  .00290385  33092-4  60554-3 0  9996
2 51184  82.4697 272.5739 0005830 188.6359 171.4819 15.98977706184641
